STARLINK-31162          
1 58791U 24012E   26068.33510763 -.00000616  00000+0 -12838-4 0  9999
2 58791  43.0024 167.0956 0001906 282.4896  77.5743 15.27589946121186
FLOCK 4G-23             
1 62647U 25009AQ  26068.71663397  .00012440  00000+0  46816-3 0  9993
2 62647  97.3979 150.9478 0000905   7.2707 352.8545 15.27262579 63728
